#aV2021 12 16  0  0  0.00000000     288 DD+AD WGS84 FIT  NGA
## 2188 345600.00000000   300.00000000 59564 0.0000000000000
+   32     1  2  3  4  5  6  7  8  9 10 11 12 13 14 15 16 17
+         18 19 20 21 22 23 24 25 26 27 28 29 30 31 32  0  0
+          0  0  0  0  0  0  0  0  0  0  0  0  0  0  0  0  0
+          0  0  0  0  0  0  0  0  0  0  0  0  0  0  0  0  0
+          0  0  0  0  0  0  0  0  0  0  0  0  0  0  0  0  0
++         2  2  2  2  2  2  2  2  2  2  2  2  2  2  2  2  2
++         2  2  2  2  2  2  2  2  2  2  2  2  2  2  2  0  0
++         0  0  0  0  0  0  0  0  0  0  0  0  0  0  0  0  0
++         0  0  0  0  0  0  0  0  0  0  0  0  0  0  0  0  0
++         0  0  0  0  0  0  0  0  0  0  0  0  0  0  0  0  0
%c cc cc ccc ccc cccc cccc cccc cccc ccccc ccccc ccccc ccccc
%c cc cc ccc ccc cccc cccc cccc cccc ccccc ccccc ccccc ccccc
%f  0.0000000  0.000000000  0.00000000000  0.000000000000000
%f  0.0000000  0.000000000  0.00000000000  0.000000000000000
%i    0    0    0    0      0      0      0      0         0
%i    0    0    0    0      0      0      0      0         0
/*      NGA, ST. LOUIS,MO.                                  
/*   EPHEMERIS COMPUTED FROM 2 DAYS OF DATA                 
/*   EPOCHA v7 SMOOTHER                                     
/*   G2139 IERS2010 SATIGS SATAPC                           
*  2021 12 16  2  0  0.00000000
P  1  13255.761016 -17276.603264  14688.485210    482.966562                    
V  1  -1907.507923  19214.592678  24205.146061     -0.101599                    
P  2 -14260.081631  -4889.636451 -21200.188957   -645.793049                    
V  2   3405.325877 -28298.015560   4204.988409     -0.012423                    
P  3  21934.827327 -13075.101905  -7215.137312    -43.086259                    
V  3   9313.551310   -794.330504  30286.805066     -0.124297                    
P  4  12926.546920  -8619.002990 -21548.402099   -198.880343                    
V  4  20001.306442  18667.362738   4456.165606      0.013104                    
P  5 -25139.503229   4122.078506  -7946.717916    -64.551401                    
V  5   8174.663934  -6018.218499 -29445.093842     -0.012989                    
P  6  -6693.595629 -20373.842540 -15559.818984    143.886303                    
V  6   5098.651438 -19248.852304  22969.102702      0.100761                    
P  7   5201.805854 -25755.107636   -467.293103    291.302132                    
V  7   3312.757036   1691.074776 -31855.195704      0.044697                    
P  8  20455.134271   1444.639964  17046.699911    -48.251851                    
V  8  15752.779230  14754.669756 -19808.583085     -0.014922                    
P  9   1550.140610 -17252.359556 -20200.134033   -360.351941                    
V  9  20468.435060  15281.365818 -11552.936375      0.007314                    
P 10   4792.294497  14249.043686  22022.181088   -269.712022                    
V 10 -26035.459231   9223.094042   -591.061982     -0.089913                    
P 11 -13501.667679  -7904.529886 -21470.730294     12.528695                    
V 11   6856.995391 -26372.369890   5382.677555     -0.033426                    
P 12 -23663.579457  10613.004090  -5641.076631   -141.384048                    
V 12  -7266.901260   -538.748905  31002.747211     -0.055995                    
P 13 -20968.259217 -10145.932083  12749.802040    230.124754                    
V 13  -9444.598351 -13522.209910 -25826.880727      0.058298                    
P 14  -3823.082887 -14870.759265  21668.087291    -55.839396                    
V 14  26324.825484  -8100.840637   -974.307749     -0.061326                    
P 15 -20533.833912   1325.997500  16563.780449    -98.854324                    
V 15 -16952.819918 -13851.353398 -19111.825825      0.028375                    
P 16  24699.315699   1049.325123 -10565.358268   -440.982373                    
V 16 -12013.213491   4941.907402 -27827.850503     -0.059602                    
P 17 -10373.393355 -21371.403436  12285.955799    548.047330                    
V 17  11945.275957   9054.655907  26832.567746      0.053480                    
P 18  -5308.181710  25967.710574    -33.238303    278.760220                    
V 18  -2548.533699   -557.704888 -32029.896203     -0.066275                    
P 19 -16515.908771 -20606.887736   3348.252344     92.744810                    
V 19   4655.574111   1845.295374  31665.083667      0.049944                    
P 20 -20383.150265  -2777.756326 -16671.336071    517.624981                    
V 20  17635.387603 -12175.584683 -19806.981187     -0.001712                    
P 21  15391.405432  -7934.188958  20662.784202    153.829407                    
V 21  -1377.311448  24883.873268  11534.533644      0.009617                    
P 22  24377.641752 -10062.691379   2106.645302   -440.451687                    
V 22   -638.995857   4419.422944  31225.588107      0.089733                    
P 23  -8077.305017  16982.748348  18702.649828     21.435948                    
V 23 -22692.166602   7312.540869 -16510.881711     -0.041279                    
P 24 -14331.217206  13460.325193  17380.807571    274.831705                    
V 24      7.673355 -23000.508273  17942.699088      0.018527                    
P 25 -14978.106433  16378.504103 -14651.332226    256.367569                    
V 25 -17921.497311   4123.584502  23639.354715      0.057386                    
P 26  15990.156109   8762.759672 -19479.413811    165.370263                    
V 26 -22179.824545  10643.072476 -13165.921125      0.036149                    
P 27  22548.688520  11107.843692   8971.663960      0.815106                    
V 27   7539.616543   8928.560788 -29021.661935      0.193423                    
P 28 -11532.785591 -12012.075671  21177.867095    442.277253                    
V 28  24701.204789  -7120.953985   9873.721140     -0.077023                    
P 29  -6229.886123  14137.594309 -21638.042549   -454.524932                    
V 29 -19792.923428 -18842.680853  -6680.485450     -0.050756                    
P 30  -1637.499711 -24862.332480   8912.479395   -499.612946                    
V 30   5637.653796 -10424.720737 -28495.658916     -0.029094                    
P 31   8593.926560  18254.414023 -17141.703713   -155.239021                    
V 31  -6454.271508  20867.536682  19581.766817     -0.018485                    
P 32  14871.056571  20394.226826   8687.154747    -35.759393                    
V 32  -9916.117393  -5005.145216  28936.967863     -0.054354                    
EOF
